[{"OBJECT_NAME":"ZHONGXING-6D","OBJECT_ID":"2022-038A","EPOCH":"2026-03-13T04:17:02.012928","MEAN_MOTION":1.0026584,"ECCENTRICITY":0.00020526,"INCLINATION":0.0313,"RA_OF_ASC_NODE":195.5655,"ARG_OF_PERICENTER":117.1283,"MEAN_ANOMALY":47.2889,"EPHEMERIS_TYPE":0,"CLASSIFICATION_TYPE":"U","NORAD_CAT_ID":52255,"ELEMENT_SET_NO":999,"REV_AT_EPOCH":1446,"BSTAR":0,"MEAN_MOTION_DOT":0,"MEAN_MOTION_DDOT":0},{"OBJECT_NAME":"NILESAT 301","OBJECT_ID":"2022-061A","EPOCH":"2026-03-15T05:00:47.617344","MEAN_MOTION":1.00269246,"ECCENTRICITY":0.00057603,"INCLINATION":0.0228,"RA_OF_ASC_NODE":31.1303,"ARG_OF_PERICENTER":326.9366,"MEAN_ANOMALY":242.9544,"EPHEMERIS_TYPE":0,"CLASSIFICATION_TYPE":"U","NORAD_CAT_ID":52817,"ELEMENT_SET_NO":999,"REV_AT_EPOCH":1379,"BSTAR":0,"MEAN_MOTION_DOT":0,"MEAN_MOTION_DDOT":0},{"OBJECT_NAME":"CMS-02 (GSAT 24)","OBJECT_ID":"2022-067A","EPOCH":"2026-03-14T22:35:47.038560","MEAN_MOTION":1.00270611,"ECCENTRICITY":0.00021428,"INCLINATION":0.0185,"RA_OF_ASC_NODE":216.3743,"ARG_OF_PERICENTER":87.8806,"MEAN_ANOMALY":290.2338,"EPHEMERIS_TYPE":0,"CLASSIFICATION_TYPE":"U","NORAD_CAT_ID":52903,"ELEMENT_SET_NO":999,"REV_AT_EPOCH":1366,"BSTAR":0,"MEAN_MOTION_DOT":-1.65e-6,"MEAN_MOTION_DDOT":0},{"OBJECT_NAME":"MEASAT 3D","OBJECT_ID":"2022-067B","EPOCH":"2026-03-15T02:03:34.612128","MEAN_MOTION":1.00271467,"ECCENTRICITY":0.00030487,"INCLINATION":0.0488,"RA_OF_ASC_NODE":330.0721,"ARG_OF_PERICENTER":10.3055,"MEAN_ANOMALY":314.7232,"EPHEMERIS_TYPE":0,"CLASSIFICATION_TYPE":"U","NORAD_CAT_ID":52904,"ELEMENT_SET_NO":999,"REV_AT_EPOCH":1370,"BSTAR":0,"MEAN_MOTION_DOT":-2.42e-6,"MEAN_MOTION_DDOT":0},{"OBJECT_NAME":"SES-22","OBJECT_ID":"2022-071A","EPOCH":"2026-03-15T04:23:13.718688","MEAN_MOTION":1.00273792,"ECCENTRICITY":9.874e-5,"INCLINATION":0.0175,"RA_OF_ASC_NODE":99.6203,"ARG_OF_PERICENTER":255.9997,"MEAN_ANOMALY":103.9659,"EPHEMERIS_TYPE":0,"CLASSIFICATION_TYPE":"U","NORAD_CAT_ID":52933,"ELEMENT_SET_NO":999,"REV_AT_EPOCH":658,"BSTAR":0,"MEAN_MOTION_DOT":1.03e-6,"MEAN_MOTION_DDOT":0},{"OBJECT_NAME":"WFOV (USA 332)","OBJECT_ID":"2022-073A","EPOCH":"2026-03-14T23:43:38.648064","MEAN_MOTION":1.00269197,"ECCENTRICITY":0.00012904,"INCLINATION":3.4675,"RA_OF_ASC_NODE":79.7366,"ARG_OF_PERICENTER":224.9909,"MEAN_ANOMALY":343.0202,"EPHEMERIS_TYPE":0,"CLASSIFICATION_TYPE":"U","NORAD_CAT_ID":52940,"ELEMENT_SET_NO":999,"REV_AT_EPOCH":1342,"BSTAR":0,"MEAN_MOTION_DOT":-3.61e-6,"MEAN_MOTION_DDOT":0},{"OBJECT_NAME":"TIANLIAN 2-03","OBJECT_ID":"2022-078A","EPOCH":"2026-03-15T05:05:47.137632","MEAN_MOTION":1.00271155,"ECCENTRICITY":0.00032928,"INCLINATION":0.4326,"RA_OF_ASC_NODE":73.625,"ARG_OF_PERICENTER":257.9513,"MEAN_ANOMALY":288.2328,"EPHEMERIS_TYPE":0,"CLASSIFICATION_TYPE":"U","NORAD_CAT_ID":53100,"ELEMENT_SET_NO":999,"REV_AT_EPOCH":1360,"BSTAR":0,"MEAN_MOTION_DOT":7.1e-7,"MEAN_MOTION_DDOT":0},{"OBJECT_NAME":"SBIRS GEO-6 (USA 336)","OBJECT_ID":"2022-092A","EPOCH":"2026-03-15T05:42:28.620000","MEAN_MOTION":1.00271327,"ECCENTRICITY":0.00020362,"INCLINATION":3.4201,"RA_OF_ASC_NODE":315.9713,"ARG_OF_PERICENTER":38.8403,"MEAN_ANOMALY":42.6333,"EPHEMERIS_TYPE":0,"CLASSIFICATION_TYPE":"U","NORAD_CAT_ID":53355,"ELEMENT_SET_NO":999,"REV_AT_EPOCH":1329,"BSTAR":0,"MEAN_MOTION_DOT":-2.94e-6,"MEAN_MOTION_DDOT":0},{"OBJECT_NAME":"EUTELSAT KONNECT VHTS","OBJECT_ID":"2022-110A","EPOCH":"2026-03-15T05:03:32.352768","MEAN_MOTION":1.00269379,"ECCENTRICITY":0.00028319,"INCLINATION":0.0579,"RA_OF_ASC_NODE":104.1049,"ARG_OF_PERICENTER":226.3647,"MEAN_ANOMALY":280.9193,"EPHEMERIS_TYPE":0,"CLASSIFICATION_TYPE":"U","NORAD_CAT_ID":53765,"ELEMENT_SET_NO":999,"REV_AT_EPOCH":589,"BSTAR":0,"MEAN_MOTION_DOT":1.6e-7,"MEAN_MOTION_DDOT":0},{"OBJECT_NAME":"ZHONGXING-1E","OBJECT_ID":"2022-112A","EPOCH":"2026-03-12T19:14:40.469856","MEAN_MOTION":1.00274038,"ECCENTRICITY":0.00025683,"INCLINATION":0.0554,"RA_OF_ASC_NODE":305.0129,"ARG_OF_PERICENTER":354.3662,"MEAN_ANOMALY":241.1166,"EPHEMERIS_TYPE":0,"CLASSIFICATION_TYPE":"U","NORAD_CAT_ID":53813,"ELEMENT_SET_NO":999,"REV_AT_EPOCH":1288,"BSTAR":0,"MEAN_MOTION_DOT":-1.5e-6,"MEAN_MOTION_DDOT":0},{"OBJECT_NAME":"SES-20","OBJECT_ID":"2022-123A","EPOCH":"2026-03-13T21:45:03.342816","MEAN_MOTION":1.00270457,"ECCENTRICITY":0.00017204,"INCLINATION":0.0192,"RA_OF_ASC_NODE":104.9887,"ARG_OF_PERICENTER":326.8603,"MEAN_ANOMALY":322.8278,"EPHEMERIS_TYPE":0,"CLASSIFICATION_TYPE":"U","NORAD_CAT_ID":53960,"ELEMENT_SET_NO":999,"REV_AT_EPOCH":1257,"BSTAR":0,"MEAN_MOTION_DOT":-1.01e-6,"MEAN_MOTION_DDOT":0},{"OBJECT_NAME":"SES-21","OBJECT_ID":"2022-123B","EPOCH":"2026-03-15T06:08:11.152896","MEAN_MOTION":1.00270508,"ECCENTRICITY":0.00010631,"INCLINATION":0.0288,"RA_OF_ASC_NODE":67.4686,"ARG_OF_PERICENTER":280.5175,"MEAN_ANOMALY":145.9027,"EPHEMERIS_TYPE":0,"CLASSIFICATION_TYPE":"U","NORAD_CAT_ID":53961,"ELEMENT_SET_NO":999,"REV_AT_EPOCH":627,"BSTAR":0,"MEAN_MOTION_DOT":6.9e-7,"MEAN_MOTION_DDOT":0},{"OBJECT_NAME":"GALAXY 33 (G-33)","OBJECT_ID":"2022-128A","EPOCH":"2026-03-13T09:34:38.587872","MEAN_MOTION":1.00271687,"ECCENTRICITY":0.00017947,"INCLINATION":0.0138,"RA_OF_ASC_NODE":105.0382,"ARG_OF_PERICENTER":258.0759,"MEAN_ANOMALY":178.5705,"EPHEMERIS_TYPE":0,"CLASSIFICATION_TYPE":"U","NORAD_CAT_ID":54026,"ELEMENT_SET_NO":999,"REV_AT_EPOCH":1278,"BSTAR":0,"MEAN_MOTION_DOT":7.9e-7,"MEAN_MOTION_DDOT":0},{"OBJECT_NAME":"GALAXY 34 (G-34)","OBJECT_ID":"2022-128B","EPOCH":"2026-03-15T04:26:05.943264","MEAN_MOTION":1.00271715,"ECCENTRICITY":0.00013843,"INCLINATION":0.0194,"RA_OF_ASC_NODE":121.2654,"ARG_OF_PERICENTER":235.7436,"MEAN_ANOMALY":113.2853,"EPHEMERIS_TYPE":0,"CLASSIFICATION_TYPE":"U","NORAD_CAT_ID":54027,"ELEMENT_SET_NO":999,"REV_AT_EPOCH":1297,"BSTAR":0,"MEAN_MOTION_DOT":5.8e-7,"MEAN_MOTION_DDOT":0},{"OBJECT_NAME":"ANGOSAT 2","OBJECT_ID":"2022-131A","EPOCH":"2026-03-12T18:57:57.072960","MEAN_MOTION":1.00271033,"ECCENTRICITY":6.177e-5,"INCLINATION":0.0191,"RA_OF_ASC_NODE":162.9381,"ARG_OF_PERICENTER":294.1226,"MEAN_ANOMALY":20.8366,"EPHEMERIS_TYPE":0,"CLASSIFICATION_TYPE":"U","NORAD_CAT_ID":54033,"ELEMENT_SET_NO":999,"REV_AT_EPOCH":1251,"BSTAR":0,"MEAN_MOTION_DOT":1.36e-6,"MEAN_MOTION_DDOT":0},{"OBJECT_NAME":"EUTELSAT HOTBIRD 13F","OBJECT_ID":"2022-134A","EPOCH":"2026-03-15T06:42:38.858688","MEAN_MOTION":1.00271779,"ECCENTRICITY":0.00020199,"INCLINATION":0.0604,"RA_OF_ASC_NODE":291.4865,"ARG_OF_PERICENTER":74.0949,"MEAN_ANOMALY":280.9548,"EPHEMERIS_TYPE":0,"CLASSIFICATION_TYPE":"U","NORAD_CAT_ID":54048,"ELEMENT_SET_NO":999,"REV_AT_EPOCH":1243,"BSTAR":0,"MEAN_MOTION_DOT":8.6e-7,"MEAN_MOTION_DDOT":0},{"OBJECT_NAME":"LDPE-2","OBJECT_ID":"2022-144A","EPOCH":"2026-03-14T22:44:31.202304","MEAN_MOTION":1.00552421,"ECCENTRICITY":1.694e-5,"INCLINATION":5.4123,"RA_OF_ASC_NODE":64.2151,"ARG_OF_PERICENTER":261.7596,"MEAN_ANOMALY":301.6951,"EPHEMERIS_TYPE":0,"CLASSIFICATION_TYPE":"U","NORAD_CAT_ID":54219,"ELEMENT_SET_NO":999,"REV_AT_EPOCH":1089,"BSTAR":0,"MEAN_MOTION_DOT":-3.59e-6,"MEAN_MOTION_DDOT":0}]
